{"type":"FeatureCollection","features":[{"type":"Feature","id":"way/4226740","properties":{"type":"way","id":4226740,"tags":{"highway":"primary","lanes":"2","lit":"yes","maxspeed":"50","name":"Boulevard Albert 1er","oneway":"yes","surface":"asphalt"},"relations":[{"role":"","rel":"148194","reltags":{"name":"Circuit de Monaco","type":"circuit","wikidata":"Q171400","wikipedia":"en:Circuit de Monaco"}}],"meta":{}},"geometry":{"type":"LineString","coordinates":[[7.4221705,43.7328624],[7.4221442,43.7328884],[7.4221017,43.7329303],[7.4220801,43.7329572],[7.4220273,43.7330228],[7.4219845,43.7330761],[7.4219743,43.7330913],[7.4219448,43.7331352],[7.4219203,43.7331716],[7.4218678,43.7332496],[7.4218396,43.7332917],[7.4218318,43.7333032],[7.4218115,43.7333334]]}},{"type":"Feature","id":"way/4227241","properties":{"type":"way","id":4227241,"tags":{"highway":"residential","lit":"yes","name":"Rascasse","oneway":"yes"},"relations":[{"role":"pit_lane","rel":"148194","reltags":{"name":"Circuit de Monaco","type":"circuit","wikidata":"Q171400","wikipedia":"en:Circuit de Monaco"}}],"meta":{}},"geometry":{"type":"LineString","coordinates":[[7.4229549,43.7323869],[7.4228481,43.7324376],[7.4227898,43.7324583]]}},{"type":"Feature","id":"way/4229308","properties":{"type":"way","id":4229308,"tags":{"highway":"residential","lit":"yes","name":"Avenue de Monte-Carlo","oneway":"yes"},"relations":[{"role":"","rel":"148194","reltags":{"name":"Circuit de Monaco","type":"circuit","wikidata":"Q171400","wikipedia":"en:Circuit de Monaco"}}],"meta":{}},"geometry":{"type":"LineString","coordinates":[[7.4265111,43.7378718],[7.4269121,43.7379128]]}},{"type":"Feature","id":"way/4229536","properties":{"type":"way","id":4229536,"tags":{"highway":"primary","lanes":"2","lit":"yes","maxspeed":"50","name":"Boulevard Louis II","surface":"asphalt"},"relations":[{"role":"","rel":"148194","reltags":{"name":"Circuit de Monaco","type":"circuit","wikidata":"Q171400","wikipedia":"en:Circuit de Monaco"}}],"meta":{}},"geometry":{"type":"LineString","coordinates":[[7.4254998,43.7372256],[7.4255451,43.7372317],[7.4257744,43.7372559],[7.4260157,43.7372814],[7.4261904,43.7372999],[7.426259,43.7373103],[7.4264577,43.7373403],[7.4266493,43.7373693],[7.4268433,43.7374067],[7.4269486,43.7374292],[7.4270066,43.7374416]]}},{"type":"Feature","id":"way/4229658","properties":{"type":"way","id":4229658,"tags":{"access":"no","highway":"residential","lit":"yes","name":"Place du Casino","oneway":"yes","sidewalk":"right","surface":"asphalt"},"relations":[{"role":"","rel":"148194","reltags":{"name":"Circuit de Monaco","type":"circuit","wikidata":"Q171400","wikipedia":"en:Circuit de Monaco"}}],"meta":{}},"geometry":{"type":"LineString","coordinates":[[7.4271748,43.7394883],[7.4271758,43.7394711],[7.4271781,43.7394323],[7.4272085,43.7393682],[7.4272191,43.7393529],[7.4272412,43.7393211],[7.4273089,43.7392609],[7.4273294,43.7392487],[7.4274009,43.739206]]}},{"type":"Feature","id":"way/4230006","properties":{"type":"way","id":4230006,"tags":{"bus":"no","highway":"residential","lit":"yes","maxspeed":"50","name":"Avenue des Spélugues","sidewalk":"right","surface":"asphalt"},"relations":[{"role":"","rel":"148194","reltags":{"name":"Circuit de Monaco","type":"circuit","wikidata":"Q171400","wikipedia":"en:Circuit de Monaco"}}],"meta":{}},"geometry":{"type":"LineString","coordinates":[[7.4272861,43.7397074],[7.4274544,43.7398684],[7.4275372,43.7399476]]}},{"type":"Feature","id":"way/4230007","properties":{"type":"way","id":4230007,"tags":{"highway":"residential","lit":"yes","maxspeed":"50","maxweight":"7.5","name":"Avenue Princesse Grace","surface":"asphalt"},"relations":[{"role":"","rel":"148194","reltags":{"name":"Circuit de Monaco","type":"circuit","wikidata":"Q171400","wikipedia":"en:Circuit de Monaco"}}],"meta":{}},"geometry":{"type":"LineString","coordinates":[[7.4296081,43.7409781],[7.4295658,43.7409647],[7.4293988,43.7409117],[7.4293699,43.7408998],[7.4293503,43.7408882],[7.4293349,43.7408747],[7.4293172,43.7408554],[7.4293045,43.7408308],[7.4292963,43.7408062],[7.4292913,43.7407856],[7.4292918,43.74076],[7.4293018,43.7407312],[7.4293145,43.7407089],[7.4293299,43.7406896],[7.4293594,43.7406621],[7.4294113,43.7406111],[7.4294816,43.7405447],[7.4295089,43.7405189],[7.4295595,43.7404738],[7.4296048,43.7404382],[7.4296488,43.7404092],[7.4296927,43.7403829],[7.4297185,43.7403616],[7.4297299,43.7403462]]}},{"type":"Feature","id":"way/4230009","properties":{"type":"way","id":4230009,"tags":{"highway":"residential","lit":"yes","name":"Avenue de Monte-Carlo","sidewalk":"right","surface":"asphalt"},"relations":[{"role":"","rel":"148194","reltags":{"name":"Circuit de Monaco","type":"circuit","wikidata":"Q171400","wikipedia":"en:Circuit de Monaco"}}],"meta":{}},"geometry":{"type":"LineString","coordinates":[[7.4271748,43.7394883],[7.4271868,43.7395367],[7.4272109,43.7395909],[7.427253,43.7396561],[7.4272861,43.7397074]]}},{"type":"Feature","id":"way/4230891","properties":{"type":"way","id":4230891,"tags":{"highway":"primary","lanes":"2","layer":"-1","lit":"yes","maxspeed":"50","name":"Boulevard Louis II","surface":"asphalt","tunnel":"yes"},"relations":[{"role":"","rel":"148194","reltags":{"name":"Circuit de Monaco","type":"circuit","wikidata":"Q171400","wikipedia":"en:Circuit de Monaco"}}],"meta":{}},"geometry":{"type":"LineString","coordinates":[[7.4279916,43.7377328],[7.4281268,43.7377914],[7.4282842,43.7378597],[7.4284153,43.7379166],[7.4284689,43.737942],[7.4286375,43.7380219],[7.4286981,43.7380506],[7.4288098,43.7381035],[7.4288624,43.7381284],[7.4290225,43.7382334],[7.4290967,43.7382821],[7.4291375,43.7383138],[7.4291756,43.7383433],[7.4292914,43.7384331],[7.4294183,43.7385419],[7.4295225,43.7386312],[7.4296288,43.7387224],[7.4297462,43.7388539],[7.4298484,43.7389682],[7.4299475,43.7391254],[7.4300168,43.7392354],[7.4300699,43.7393624],[7.430122,43.7394868],[7.4301707,43.7396578],[7.4301975,43.7397517],[7.4302324,43.7399031],[7.4302656,43.7400468],[7.4302882,43.7401575],[7.430308,43.7402543],[7.4303291,43.7403574],[7.4303439,43.7404297]]}},{"type":"Feature","id":"way/25103769","properties":{"type":"way","id":25103769,"tags":{"highway":"residential","lit":"yes","maxspeed":"50","name":"Avenue Princesse Grace","oneway":"yes","surface":"asphalt"},"relations":[{"role":"","rel":"148194","reltags":{"name":"Circuit de Monaco","type":"circuit","wikidata":"Q171400","wikipedia":"en:Circuit de Monaco"}}],"meta":{}},"geometry":{"type":"LineString","coordinates":[[7.4296081,43.7409781],[7.4297063,43.7410061],[7.4297807,43.741026],[7.4298529,43.7410421],[7.4299143,43.7410558],[7.4299449,43.7410605],[7.4300349,43.7410744],[7.4300734,43.7410803]]}},{"type":"Feature","id":"way/25103774","properties":{"type":"way","id":25103774,"tags":{"highway":"primary","lanes":"2","lit":"yes","maxspeed":"50","oneway":"yes","surface":"asphalt"},"relations":[{"role":"","rel":"148194","reltags":{"name":"Circuit de Monaco","type":"circuit","wikidata":"Q171400","wikipedia":"en:Circuit de Monaco"}}],"meta":{}},"geometry":{"type":"LineString","coordinates":[[7.4301393,43.7410892],[7.4301714,43.7410892],[7.4301952,43.7410892],[7.4302433,43.7410814],[7.430285,43.7410637],[7.4303254,43.741029],[7.4303401,43.7410064],[7.4303608,43.7409745],[7.4303656,43.7409426],[7.4303632,43.7408858],[7.430362,43.7408556]]}},{"type":"Feature","id":"way/39839529","properties":{"type":"way","id":39839529,"tags":{"highway":"residential","lit":"yes","name":"Quai Albert 1er"},"relations":[{"role":"","rel":"148194","reltags":{"name":"Circuit de Monaco","type":"circuit","wikidata":"Q171400","wikipedia":"en:Circuit de Monaco"}}],"meta":{}},"geometry":{"type":"LineString","coordinates":[[7.4229549,43.7323869],[7.4229891,43.7323941],[7.4230072,43.7323973],[7.4230385,43.7324046],[7.4230722,43.7324116],[7.4230998,43.7324173],[7.4231715,43.7324322],[7.4232388,43.7324461],[7.42331,43.7324587],[7.4233794,43.732471],[7.423408,43.7324761],[7.4234466,43.7324883],[7.4234556,43.7324911],[7.4234636,43.7324976],[7.4234764,43.7325079],[7.4234825,43.7325317],[7.4234801,43.7325538],[7.4234647,43.7326043],[7.4234618,43.7326139],[7.4234301,43.7326696],[7.4234251,43.7326783]]}},{"type":"Feature","id":"way/41929969","properties":{"type":"way","id":41929969,"tags":{"highway":"primary","lanes":"2","lit":"yes","maxspeed":"50","name":"Boulevard Louis II","surface":"asphalt"},"relations":[{"role":"","rel":"148194","reltags":{"name":"Circuit de Monaco","type":"circuit","wikidata":"Q171400","wikipedia":"en:Circuit de Monaco"}}],"meta":{}},"geometry":{"type":"LineString","coordinates":[[7.4303439,43.7404297],[7.4303482,43.740529],[7.4303536,43.7406557],[7.430362,43.7408556]]}},{"type":"Feature","id":"way/41930043","properties":{"type":"way","id":41930043,"tags":{"highway":"service"},"relations":[{"role":"pit_lane","rel":"148194","reltags":{"name":"Circuit de Monaco","type":"circuit","wikidata":"Q171400","wikipedia":"en:Circuit de Monaco"}}],"meta":{}},"geometry":{"type":"LineString","coordinates":[[7.4213059,43.7347806],[7.4214023,43.7347347],[7.4215559,43.7346955],[7.4215742,43.7345933],[7.4216057,43.7344036],[7.4216678,43.734286],[7.4217482,43.7341956],[7.4218357,43.7340861],[7.4219643,43.7337487],[7.4221357,43.7334136],[7.4222489,43.7332442],[7.4224193,43.7330477],[7.4225331,43.7329368],[7.4227252,43.7327775],[7.4227852,43.7327262],[7.4228008,43.7326955],[7.4228009,43.7326576],[7.4227898,43.7324583]]}},{"type":"Feature","id":"way/60767229","properties":{"type":"way","id":60767229,"tags":{"highway":"primary","lanes":"2","lit":"yes","maxspeed":"50","name":"Avenue du Port","oneway":"yes","surface":"asphalt"},"relations":[{"role":"","rel":"148194","reltags":{"name":"Circuit de Monaco","type":"circuit","wikidata":"Q171400","wikipedia":"en:Circuit de Monaco"}}],"meta":{}},"geometry":{"type":"LineString","coordinates":[[7.4222843,43.7327623],[7.4222733,43.7327719],[7.4222305,43.7328097],[7.422226,43.7328136],[7.4221705,43.7328624]]}},{"type":"Feature","id":"way/93137586","properties":{"type":"way","id":93137586,"tags":{"highway":"service","lit":"yes","name":"Quai des États-Unis","oneway":"yes","sport":"motor","surface":"asphalt"},"relations":[{"role":"","rel":"148194","reltags":{"name":"Circuit de Monaco","type":"circuit","wikidata":"Q171400","wikipedia":"en:Circuit de Monaco"}}],"meta":{}},"geometry":{"type":"LineString","coordinates":[[7.425451,43.7371331],[7.4254444,43.7370993],[7.4254352,43.7370609],[7.4254248,43.7370392],[7.4254165,43.7370314],[7.4253971,43.7370132],[7.4253763,43.7370077],[7.4252263,43.7369862],[7.4252073,43.736984],[7.4251499,43.736984],[7.4251071,43.7369937],[7.4250899,43.737003],[7.4250143,43.737044],[7.4249961,43.7370487],[7.4249764,43.7370537],[7.4249425,43.7370557],[7.4249324,43.7370563],[7.424869,43.7370535],[7.4248338,43.73705],[7.4247422,43.7370409],[7.4247214,43.7370388],[7.4246856,43.7370352]]}},{"type":"Feature","id":"way/157719644","properties":{"type":"way","id":157719644,"tags":{"highway":"primary","lanes":"2","lit":"yes","maxspeed":"50","name":"Avenue d'Ostende","surface":"asphalt"},"relations":[{"role":"","rel":"148194","reltags":{"name":"Circuit de Monaco","type":"circuit","wikidata":"Q171400","wikipedia":"en:Circuit de Monaco"}}],"meta":{}},"geometry":{"type":"LineString","coordinates":[[7.4221175,43.7370216],[7.422551,43.7370662],[7.4227661,43.7370944],[7.4227884,43.737098],[7.4229093,43.7371175],[7.4231363,43.7371615],[7.4231444,43.7371633],[7.4234985,43.7372399],[7.4236281,43.7372681],[7.423706,43.7372851],[7.4237413,43.7372923],[7.4240136,43.7373476]]}},{"type":"Feature","id":"way/160004391","properties":{"type":"way","id":160004391,"tags":{"highway":"primary","lanes":"2","lit":"yes","maxspeed":"50","name":"Boulevard Louis II","surface":"asphalt"},"relations":[{"role":"","rel":"148194","reltags":{"name":"Circuit de Monaco","type":"circuit","wikidata":"Q171400","wikipedia":"en:Circuit de Monaco"}}],"meta":{}},"geometry":{"type":"LineString","coordinates":[[7.4270066,43.7374416],[7.4270238,43.7374453],[7.4270545,43.7374531]]}},{"type":"Feature","id":"way/160004393","properties":{"type":"way","id":160004393,"tags":{"highway":"primary","lanes":"2","lit":"yes","maxspeed":"50","name":"Boulevard Louis II","surface":"asphalt"},"relations":[{"role":"","rel":"148194","reltags":{"name":"Circuit de Monaco","type":"circuit","wikidata":"Q171400","wikipedia":"en:Circuit de Monaco"}}],"meta":{}},"geometry":{"type":"LineString","coordinates":[[7.4270545,43.7374531],[7.4271101,43.7374671],[7.4272188,43.7374945],[7.4272428,43.7375012],[7.4273592,43.7375341],[7.4273885,43.7375423],[7.4274987,43.7375766],[7.4275399,43.7375886],[7.4276859,43.737631],[7.4277558,43.7376513],[7.4278434,43.737678],[7.4278989,43.7376985],[7.4279916,43.7377328]]}},{"type":"Feature","id":"way/161752645","properties":{"type":"way","id":161752645,"tags":{"access":"private","highway":"residential","lit":"yes","name":"Avenue de Monte-Carlo"},"relations":[{"role":"","rel":"148194","reltags":{"name":"Circuit de Monaco","type":"circuit","wikidata":"Q171400","wikipedia":"en:Circuit de Monaco"}}],"meta":{}},"geometry":{"type":"LineString","coordinates":[[7.4274009,43.739206],[7.4275679,43.7390917],[7.4276022,43.7390682],[7.4276787,43.739005],[7.4277071,43.7389815]]}},{"type":"Feature","id":"way/161775592","properties":{"type":"way","id":161775592,"tags":{"highway":"residential","lit":"yes","maxspeed":"30","name":"Avenue de Monte-Carlo","oneway":"yes"},"relations":[{"role":"","rel":"148194","reltags":{"name":"Circuit de Monaco","type":"circuit","wikidata":"Q171400","wikipedia":"en:Circuit de Monaco"}}],"meta":{}},"geometry":{"type":"LineString","coordinates":[[7.4269121,43.7379128],[7.4269855,43.7379243],[7.4270836,43.7379396],[7.4272261,43.7379717],[7.4272628,43.7379799],[7.4273601,43.7380181],[7.4273886,43.7380293],[7.4274569,43.738064],[7.427512,43.738092],[7.4275836,43.7381384],[7.4275963,43.7381467],[7.4276709,43.7382041],[7.4277234,43.7382491],[7.4277728,43.7382975],[7.4278039,43.7383314],[7.4278361,43.738375],[7.4278451,43.7383942],[7.4278578,43.7384212],[7.4278737,43.7384786],[7.4278761,43.7385395],[7.4278707,43.7386026],[7.4278609,43.7386516],[7.4278577,43.7386674],[7.4278429,43.7387334],[7.4278089,43.7388132],[7.4277976,43.738834],[7.4277613,43.7389006],[7.4277071,43.7389815]]}},{"type":"Feature","id":"way/161882794","properties":{"type":"way","id":161882794,"tags":{"highway":"primary","lanes":"2","lit":"yes","maxspeed":"50","name":"Boulevard Albert 1er","oneway":"yes","surface":"asphalt"},"relations":[{"role":"","rel":"148194","reltags":{"name":"Circuit de Monaco","type":"circuit","wikidata":"Q171400","wikipedia":"en:Circuit de Monaco"}}],"meta":{}},"geometry":{"type":"LineString","coordinates":[[7.4214209,43.7365546],[7.4214317,43.7365699],[7.4215954,43.7368006]]}},{"type":"Feature","id":"way/165636064","properties":{"type":"way","id":165636064,"tags":{"highway":"primary","lanes":"2","lit":"yes","maxspeed":"50","name":"Rond-Point Sainte-Dévote","oneway":"yes","surface":"asphalt"},"relations":[{"role":"","rel":"148194","reltags":{"name":"Circuit de Monaco","type":"circuit","wikidata":"Q171400","wikipedia":"en:Circuit de Monaco"}}],"meta":{}},"geometry":{"type":"LineString","coordinates":[[7.4215954,43.7368006],[7.4216573,43.7368515],[7.4217461,43.7369027]]}},{"type":"Feature","id":"way/166399479","properties":{"type":"way","id":166399479,"tags":{"highway":"primary","lanes":"2","lit":"yes","maxspeed":"50","name":"Boulevard Albert 1er","oneway":"yes","surface":"asphalt"},"relations":[{"role":"","rel":"148194","reltags":{"name":"Circuit de Monaco","type":"circuit","wikidata":"Q171400","wikipedia":"en:Circuit de Monaco"}}],"meta":{}},"geometry":{"type":"LineString","coordinates":[[7.4218115,43.7333334],[7.4217927,43.7333741],[7.4217584,43.7334482],[7.4217145,43.7335478],[7.4217098,43.7335584],[7.421705,43.7335705],[7.421693,43.7336006],[7.4216701,43.7336515],[7.4216609,43.7336737],[7.4216373,43.7337308],[7.4215941,43.7338388],[7.421569,43.7339007],[7.4215567,43.7339309],[7.4215368,43.7339825],[7.4215295,43.7340015],[7.4214815,43.7341258],[7.4214345,43.7342545],[7.4214304,43.7342658],[7.4214102,43.7343333],[7.4214022,43.7343601],[7.4213956,43.7343821],[7.4213847,43.734428],[7.4213748,43.7344691],[7.4213722,43.7344802],[7.421358,43.7345446],[7.4213333,43.7346566],[7.4213284,43.7346786],[7.4213176,43.7347276],[7.4213059,43.7347806],[7.4212964,43.734838],[7.4212837,43.7349149],[7.4212724,43.7349832],[7.4212652,43.7350269],[7.421245,43.7352207],[7.4212306,43.735349],[7.421226,43.7353903],[7.4212204,43.7354374],[7.4212103,43.7355796],[7.4212077,43.7356156],[7.4212091,43.7356754],[7.4212113,43.7357741],[7.4212159,43.7358229],[7.4212313,43.7359846],[7.4212324,43.7359964],[7.4212587,43.7361347],[7.4212611,43.7361473],[7.4212904,43.7362497],[7.4213049,43.736292],[7.4213244,43.7363487],[7.4213682,43.736447],[7.4213935,43.7364987],[7.4214209,43.7365546]]}},{"type":"Feature","id":"way/166399484","properties":{"type":"way","id":166399484,"tags":{"highway":"primary","lanes":"2","lit":"yes","maxspeed":"50","name":"Avenue d'Ostende","oneway":"yes","surface":"asphalt"},"relations":[{"role":"","rel":"148194","reltags":{"name":"Circuit de Monaco","type":"circuit","wikidata":"Q171400","wikipedia":"en:Circuit de Monaco"}}],"meta":{}},"geometry":{"type":"LineString","coordinates":[[7.4217461,43.7369027],[7.421775,43.7369168],[7.4217807,43.7369196],[7.4218534,43.7369546],[7.4219465,43.7369855],[7.4221175,43.7370216]]}},{"type":"Feature","id":"way/166399501","properties":{"type":"way","id":166399501,"tags":{"highway":"residential","lit":"yes","maxspeed":"50","name":"Avenue des Spélugues","surface":"asphalt"},"relations":[{"role":"","rel":"148194","reltags":{"name":"Circuit de Monaco","type":"circuit","wikidata":"Q171400","wikipedia":"en:Circuit de Monaco"}}],"meta":{}},"geometry":{"type":"LineString","coordinates":[[7.4277541,43.7401666],[7.4278204,43.7402328],[7.4278912,43.7403036],[7.4279194,43.740331],[7.4280121,43.7404181],[7.4280619,43.7404648],[7.4281432,43.7405437],[7.4282727,43.7406692],[7.4284035,43.740796],[7.4285759,43.7409632],[7.4286333,43.7410189],[7.4286771,43.7410596],[7.4287037,43.7410843],[7.4287297,43.7410972],[7.4287442,43.7411029],[7.4287687,43.7411094],[7.4288124,43.7411123]]}},{"type":"Feature","id":"way/166624050","properties":{"type":"way","id":166624050,"tags":{"highway":"primary","lanes":"2","lit":"yes","maxspeed":"50","name":"Avenue d'Ostende","surface":"asphalt"},"relations":[{"role":"","rel":"148194","reltags":{"name":"Circuit de Monaco","type":"circuit","wikidata":"Q171400","wikipedia":"en:Circuit de Monaco"}}],"meta":{}},"geometry":{"type":"LineString","coordinates":[[7.4250966,43.7374913],[7.4253592,43.737584],[7.4255617,43.7376564],[7.4256495,43.7376877],[7.4257385,43.7377195],[7.4258405,43.7377526],[7.4258623,43.7377578],[7.4259476,43.7377782],[7.4259807,43.7377841],[7.4262288,43.7378282],[7.426297,43.737837],[7.4264396,43.7378553],[7.4264666,43.7378615],[7.4265111,43.7378718]]}},{"type":"Feature","id":"way/168681959","properties":{"type":"way","id":168681959,"tags":{"highway":"primary","lanes":"2","lit":"yes","maxspeed":"50","name":"Avenue du Port","oneway":"yes","surface":"asphalt"},"relations":[{"role":"","rel":"148194","reltags":{"name":"Circuit de Monaco","type":"circuit","wikidata":"Q171400","wikipedia":"en:Circuit de Monaco"}}],"meta":{}},"geometry":{"type":"LineString","coordinates":[[7.4224172,43.7324782],[7.4224143,43.7325221],[7.4224069,43.7325629],[7.4223994,43.7325852],[7.4223915,43.7326088],[7.4223765,43.7326353],[7.4223708,43.7326454],[7.4223517,43.73268],[7.4223451,43.7326921],[7.4223141,43.7327279],[7.4222843,43.7327623]]}},{"type":"Feature","id":"way/168681960","properties":{"type":"way","id":168681960,"tags":{"highway":"primary","lanes":"2","lit":"yes","name":"Virage Antony Nogues","oneway":"yes"},"relations":[{"role":"","rel":"148194","reltags":{"name":"Circuit de Monaco","type":"circuit","wikidata":"Q171400","wikipedia":"en:Circuit de Monaco"}}],"meta":{}},"geometry":{"type":"LineString","coordinates":[[7.42259,43.7324011],[7.4226238,43.7324054],[7.4226732,43.7324117],[7.4226943,43.7324144],[7.4227232,43.7324136],[7.4227848,43.7324118],[7.4228218,43.7324095],[7.4228958,43.7324048],[7.4229549,43.7323869]]}},{"type":"Feature","id":"way/168681961","properties":{"type":"way","id":168681961,"tags":{},"relations":[{"role":"","rel":"148194","reltags":{"name":"Circuit de Monaco","type":"circuit","wikidata":"Q171400","wikipedia":"en:Circuit de Monaco"}}],"meta":{}},"geometry":{"type":"LineString","coordinates":[[7.42259,43.7324011],[7.4225436,43.7323999],[7.422524,43.7324003],[7.4225102,43.7324005],[7.4224838,43.7324085],[7.4224777,43.7324103],[7.4224524,43.7324286],[7.4224416,43.7324398],[7.4224316,43.7324501],[7.422419,43.7324746],[7.4224172,43.7324782]]}},{"type":"Feature","id":"way/214636589","properties":{"type":"way","id":214636589,"tags":{"highway":"residential","lit":"yes","name":"Quai Albert 1er","surface":"asphalt"},"relations":[{"role":"","rel":"148194","reltags":{"name":"Circuit de Monaco","type":"circuit","wikidata":"Q171400","wikipedia":"en:Circuit de Monaco"}}],"meta":{}},"geometry":{"type":"LineString","coordinates":[[7.4222556,43.7349479],[7.4222574,43.7349405],[7.4222712,43.734885],[7.4222961,43.7347849],[7.4223041,43.734753],[7.4223083,43.7347359],[7.4223176,43.7346983],[7.4223429,43.7346008],[7.4223558,43.734551],[7.4223718,43.7344883],[7.4223824,43.7344336],[7.4223961,43.7343732],[7.4224101,43.7343117],[7.4224126,43.7342747],[7.4224019,43.7342379],[7.4223757,43.7341848],[7.4223666,43.7341664],[7.4223423,43.7341166],[7.4223388,43.7341019],[7.4223292,43.7340613],[7.4223224,43.7340085],[7.4223187,43.7339801],[7.4223187,43.7339336],[7.422327,43.7338765],[7.4223377,43.7338536],[7.422356,43.7338147],[7.4223686,43.7337879],[7.4223899,43.7337441],[7.4224113,43.7337003],[7.4224838,43.7335584],[7.4225561,43.7334328],[7.4226311,43.733327],[7.4226706,43.733281],[7.4226895,43.7332589],[7.4227699,43.7331722],[7.4227968,43.7331432],[7.4228443,43.7331043],[7.4229768,43.7330045],[7.4230383,43.732966],[7.4231076,43.7329227],[7.4231683,43.732892],[7.4231924,43.7328798],[7.4232539,43.7328406],[7.4233225,43.7327968],[7.4233341,43.7327847],[7.4233593,43.7327586],[7.4233662,43.7327514],[7.423381,43.7327325],[7.4233972,43.7327117],[7.4234109,43.7326963],[7.4234251,43.7326783]]}},{"type":"Feature","id":"way/254596486","properties":{"type":"way","id":254596486,"tags":{"highway":"primary","lanes":"2","lit":"yes","maxspeed":"50","name":"Avenue d'Ostende","surface":"asphalt"},"relations":[{"role":"","rel":"148194","reltags":{"name":"Circuit de Monaco","type":"circuit","wikidata":"Q171400","wikipedia":"en:Circuit de Monaco"}}],"meta":{}},"geometry":{"type":"LineString","coordinates":[[7.4240136,43.7373476],[7.4241961,43.7373825],[7.4243568,43.7374014],[7.4245166,43.7374125],[7.4246881,43.7374283],[7.4247084,43.7374302],[7.4248685,43.7374405],[7.4249411,43.7374518],[7.4250128,43.7374699],[7.425065,43.7374832],[7.4250966,43.7374913]]}},{"type":"Feature","id":"way/348019480","properties":{"type":"way","id":348019480,"tags":{"highway":"service","lit":"yes"},"relations":[{"role":"","rel":"148194","reltags":{"name":"Circuit de Monaco","type":"circuit","wikidata":"Q171400","wikipedia":"en:Circuit de Monaco"}}],"meta":{}},"geometry":{"type":"LineString","coordinates":[[7.425451,43.7371331],[7.425451,43.7371643],[7.4254556,43.7371769],[7.425461,43.7371918],[7.4254808,43.7372109],[7.4254998,43.7372256]]}},{"type":"Feature","id":"way/353889280","properties":{"type":"way","id":353889280,"tags":{"highway":"primary","junction":"roundabout","lanes":"2","lit":"yes","maxspeed":"50","name":"Rond-Point du Portier","surface":"asphalt"},"relations":[{"role":"","rel":"148194","reltags":{"name":"Circuit de Monaco","type":"circuit","wikidata":"Q171400","wikipedia":"en:Circuit de Monaco"}}],"meta":{}},"geometry":{"type":"LineString","coordinates":[[7.4300734,43.7410803],[7.4301049,43.7410846],[7.4301393,43.7410892]]}},{"type":"Feature","id":"way/434567309","properties":{"type":"way","id":434567309,"tags":{"bus":"no","highway":"residential","lit":"yes","maxspeed":"50","name":"Avenue des Spélugues","sidewalk":"right","surface":"asphalt"},"relations":[{"role":"","rel":"148194","reltags":{"name":"Circuit de Monaco","type":"circuit","wikidata":"Q171400","wikipedia":"en:Circuit de Monaco"}}],"meta":{}},"geometry":{"type":"LineString","coordinates":[[7.4275372,43.7399476],[7.4275953,43.7400063],[7.4276466,43.740058],[7.4276951,43.740107],[7.4277541,43.7401666]]}},{"type":"Feature","id":"way/485746484","properties":{"type":"way","id":485746484,"tags":{"highway":"service","lit":"yes","name":"Quai des États-Unis"},"relations":[{"role":"","rel":"148194","reltags":{"name":"Circuit de Monaco","type":"circuit","wikidata":"Q171400","wikipedia":"en:Circuit de Monaco"}}],"meta":{}},"geometry":{"type":"LineString","coordinates":[[7.4246856,43.7370352],[7.4245365,43.7370205],[7.4244761,43.7370146],[7.4243136,43.7369986],[7.4240415,43.7369718],[7.42397,43.7369648],[7.4238442,43.7369523],[7.4236136,43.7369294],[7.4233282,43.736901],[7.4232964,43.7368973],[7.4232502,43.736892],[7.4230269,43.7368664]]}},{"type":"Feature","id":"way/503475641","properties":{"type":"way","id":503475641,"tags":{"highway":"residential","lit":"yes","name":"Quai Albert 1er","oneway":"yes"},"relations":[{"role":"","rel":"148194","reltags":{"name":"Circuit de Monaco","type":"circuit","wikidata":"Q171400","wikipedia":"en:Circuit de Monaco"}}],"meta":{}},"geometry":{"type":"LineString","coordinates":[[7.4217921,43.7355119],[7.4218036,43.7354905],[7.4218174,43.7354649],[7.4218331,43.7354475],[7.4218603,43.7354299],[7.4218692,43.7354242],[7.4218977,43.7354141],[7.4219362,43.7354005],[7.4219917,43.7353885],[7.4220106,43.7353844],[7.422059,43.7353645],[7.4221074,43.7353387],[7.4221401,43.7353041],[7.4221506,43.7352882],[7.4221632,43.7352693],[7.4221694,43.7352599],[7.422174,43.7352471],[7.4221885,43.7352069],[7.4221919,43.7351951],[7.4221942,43.7351872],[7.422203,43.7351569],[7.4222094,43.7351348],[7.4222155,43.7351137],[7.4222261,43.73507],[7.4222286,43.7350598],[7.4222469,43.7349838],[7.4222556,43.7349479]]}},{"type":"Feature","id":"way/503475642","properties":{"type":"way","id":503475642,"tags":{"highway":"residential","lit":"yes","name":"Quai Albert 1er"},"relations":[{"role":"","rel":"148194","reltags":{"name":"Circuit de Monaco","type":"circuit","wikidata":"Q171400","wikipedia":"en:Circuit de Monaco"}}],"meta":{}},"geometry":{"type":"LineString","coordinates":[[7.4230269,43.7368664],[7.4229112,43.7368547],[7.4228602,43.7368495],[7.4225376,43.7368169],[7.4224973,43.7368128],[7.4224328,43.7368063],[7.4223625,43.7367992],[7.4223193,43.7367948],[7.4222703,43.7367816],[7.4222326,43.7367714],[7.4222015,43.7367565],[7.4221667,43.7367398],[7.422146,43.736723],[7.4221287,43.7367062],[7.4220951,43.7366736],[7.4220626,43.7366316],[7.4220427,43.7366059],[7.4219985,43.7365488],[7.4219591,43.7364844],[7.421908,43.7364011],[7.4219007,43.7363892],[7.4218798,43.7363436],[7.4218651,43.7363116],[7.4218534,43.736286],[7.4218292,43.7362273],[7.4218055,43.7361698],[7.4217989,43.7361457],[7.4217914,43.7361184],[7.4217802,43.7360778],[7.4217741,43.7360407],[7.4217657,43.7359895],[7.4217609,43.73596],[7.4217574,43.7358994],[7.4217543,43.7358448],[7.4217527,43.7358173],[7.4217559,43.7357665],[7.4217588,43.7357203],[7.4217605,43.735694],[7.4217616,43.7356761],[7.4217683,43.7356397],[7.4217736,43.7356113],[7.4217782,43.7355866],[7.4217862,43.7355434],[7.4217881,43.7355335],[7.4217921,43.7355119]]}},{"type":"Feature","id":"way/568187257","properties":{"type":"way","id":568187257,"tags":{"highway":"residential","lit":"yes","maxspeed":"50","maxweight":"7.5","name":"Avenue des Spélugues","surface":"asphalt"},"relations":[{"role":"","rel":"148194","reltags":{"name":"Circuit de Monaco","type":"circuit","wikidata":"Q171400","wikipedia":"en:Circuit de Monaco"}}],"meta":{}},"geometry":{"type":"LineString","coordinates":[[7.4297299,43.7403462],[7.4297385,43.7403273],[7.4297422,43.7403051],[7.4297414,43.7402841],[7.4297314,43.7402642],[7.4297172,43.7402474],[7.4296928,43.7402287],[7.4296715,43.7402204],[7.4296481,43.7402134],[7.4296283,43.7402096],[7.4296004,43.7402084],[7.4295721,43.740212],[7.4295505,43.7402192],[7.4295293,43.7402318],[7.4295131,43.7402421],[7.4294884,43.7402717],[7.4294733,43.7403008],[7.4294582,43.74033],[7.4294295,43.7403706],[7.4293974,43.74041],[7.4293751,43.7404343],[7.4293493,43.7404592],[7.4293144,43.7404953],[7.4292581,43.7405536],[7.4292216,43.7405914],[7.4291921,43.7406247],[7.4291697,43.7406539],[7.429153,43.7406785],[7.4291401,43.7407055],[7.4291322,43.740726],[7.4291256,43.7407531],[7.4291201,43.7408062],[7.4291189,43.7408605],[7.4291154,43.7409035],[7.4291054,43.7409413],[7.4290855,43.7409727],[7.4290766,43.7409868],[7.4290554,43.7410131],[7.4290259,43.7410395],[7.4289931,43.7410615],[7.428956,43.7410815],[7.4289249,43.7410938],[7.4288861,43.7411027],[7.4288526,43.7411083],[7.4288124,43.7411123]]}},{"type":"Feature","id":"node/21911886","properties":{"type":"node","id":"21911886","tags":{"crossing":"zebra","crossing_ref":"zebra","highway":"crossing"},"relations":[],"meta":{}},"geometry":{"type":"Point","coordinates":[7.4234985,43.7372399]}},{"type":"Feature","id":"node/21912962","properties":{"type":"node","id":"21912962","tags":{"crossing":"zebra","crossing_ref":"zebra","highway":"crossing"},"relations":[],"meta":{}},"geometry":{"type":"Point","coordinates":[7.4269121,43.7379128]}},{"type":"Feature","id":"node/25191609","properties":{"type":"node","id":"25191609","tags":{"crossing":"zebra","crossing_ref":"zebra","highway":"crossing"},"relations":[],"meta":{}},"geometry":{"type":"Point","coordinates":[7.4230385,43.7324046]}},{"type":"Feature","id":"node/25191641","properties":{"type":"node","id":"25191641","tags":{"crossing":"uncontrolled","crossing_ref":"zebra","highway":"crossing"},"relations":[],"meta":{}},"geometry":{"type":"Point","coordinates":[7.4233972,43.7327117]}},{"type":"Feature","id":"node/25191668","properties":{"type":"node","id":"25191668","tags":{"crossing":"zebra","crossing_ref":"zebra","highway":"crossing"},"relations":[],"meta":{}},"geometry":{"type":"Point","coordinates":[7.4227968,43.7331432]}},{"type":"Feature","id":"node/25191715","properties":{"type":"node","id":"25191715","tags":{"crossing":"uncontrolled","crossing_ref":"zebra","highway":"crossing"},"relations":[],"meta":{}},"geometry":{"type":"Point","coordinates":[7.4223666,43.7341664]}},{"type":"Feature","id":"node/25192010","properties":{"type":"node","id":"25192010","tags":{"crossing":"zebra","crossing_ref":"zebra","highway":"crossing"},"relations":[],"meta":{}},"geometry":{"type":"Point","coordinates":[7.42259,43.7324011]}},{"type":"Feature","id":"node/25192215","properties":{"type":"node","id":"25192215","tags":{"bus":"yes","name":"Princesse Stéphanie","public_transport":"stop_position","ref:STTM":"11","tourist_bus":"yes"},"relations":[],"meta":{}},"geometry":{"type":"Point","coordinates":[7.4224069,43.7325629]}},{"type":"Feature","id":"node/25239177","properties":{"type":"node","id":"25239177","tags":{"crossing":"zebra","crossing_ref":"zebra","highway":"crossing"},"relations":[],"meta":{}},"geometry":{"type":"Point","coordinates":[7.4291256,43.7407531]}},{"type":"Feature","id":"node/25239179","properties":{"type":"node","id":"25239179","tags":{"bus":"yes","highway":"bus_stop","local_ref":"Citronniers","name":"Citronniers","public_transport":"stop_position"},"relations":[],"meta":{}},"geometry":{"type":"Point","coordinates":[7.4286333,43.7410189]}},{"type":"Feature","id":"node/25240092","properties":{"type":"node","id":"25240092","tags":{"bus":"yes","name":"Spélugues","public_transport":"stop_position"},"relations":[],"meta":{}},"geometry":{"type":"Point","coordinates":[7.4296488,43.7404092]}},{"type":"Feature","id":"node/272637895","properties":{"type":"node","id":"272637895","tags":{"crossing":"zebra","crossing_ref":"zebra","highway":"crossing"},"relations":[],"meta":{}},"geometry":{"type":"Point","coordinates":[7.4276466,43.740058]}},{"type":"Feature","id":"node/272637923","properties":{"type":"node","id":"272637923","tags":{"bus":"yes","name":"Place du Casino","public_transport":"stop_position","ref:STTM":"5","tourist_bus":"yes"},"relations":[],"meta":{}},"geometry":{"type":"Point","coordinates":[7.4275372,43.7399476]}},{"type":"Feature","id":"node/917957146","properties":{"type":"node","id":"917957146","tags":{"crossing":"zebra","crossing_ref":"zebra","highway":"crossing"},"relations":[],"meta":{}},"geometry":{"type":"Point","coordinates":[7.4221667,43.7367398]}},{"type":"Feature","id":"node/918118157","properties":{"type":"node","id":"918118157","tags":{"crossing":"zebra","crossing_ref":"zebra","highway":"crossing"},"relations":[],"meta":{}},"geometry":{"type":"Point","coordinates":[7.4264396,43.7378553]}},{"type":"Feature","id":"node/1204288311","properties":{"type":"node","id":"1204288311","tags":{"crossing_ref":"zebra","highway":"crossing"},"relations":[],"meta":{}},"geometry":{"type":"Point","coordinates":[7.421226,43.7353903]}},{"type":"Feature","id":"node/1204288371","properties":{"type":"node","id":"1204288371","tags":{"crossing_ref":"zebra","highway":"crossing"},"relations":[],"meta":{}},"geometry":{"type":"Point","coordinates":[7.4213956,43.7343821]}},{"type":"Feature","id":"node/1204288376","properties":{"type":"node","id":"1204288376","tags":{"crossing":"zebra","crossing_ref":"zebra","highway":"crossing"},"relations":[],"meta":{}},"geometry":{"type":"Point","coordinates":[7.4277071,43.7389815]}},{"type":"Feature","id":"node/1204288436","properties":{"type":"node","id":"1204288436","tags":{"crossing":"zebra","crossing_ref":"zebra","highway":"crossing"},"relations":[],"meta":{}},"geometry":{"type":"Point","coordinates":[7.4271781,43.7394323]}},{"type":"Feature","id":"node/1685108323","properties":{"type":"node","id":"1685108323","tags":{"bus":"yes","name":"Spélugues","public_transport":"stop_position"},"relations":[],"meta":{}},"geometry":{"type":"Point","coordinates":[7.4294113,43.7406111]}},{"type":"Feature","id":"node/1720683712","properties":{"type":"node","id":"1720683712","tags":{},"relations":[{"role":"start","rel":"148194","reltags":{"name":"Circuit de Monaco","type":"circuit","wikidata":"Q171400","wikipedia":"en:Circuit de Monaco"}}],"meta":{}},"geometry":{"type":"Point","coordinates":[7.4214815,43.7341258]}},{"type":"Feature","id":"node/1720684307","properties":{"type":"node","id":"1720684307","tags":{"crossing":"zebra","crossing_ref":"zebra","highway":"crossing"},"relations":[],"meta":{}},"geometry":{"type":"Point","coordinates":[7.4295089,43.7405189]}},{"type":"Feature","id":"node/1726583852","properties":{"type":"node","id":"1726583852","tags":{"crossing":"uncontrolled","crossing_ref":"tiger","highway":"crossing"},"relations":[],"meta":{}},"geometry":{"type":"Point","coordinates":[7.4213244,43.7363487]}},{"type":"Feature","id":"node/1737114566","properties":{"type":"node","id":"1737114566","tags":{"crossing":"zebra","highway":"crossing"},"relations":[],"meta":{}},"geometry":{"type":"Point","coordinates":[7.4303608,43.7409745]}},{"type":"Feature","id":"node/1737147155","properties":{"type":"node","id":"1737147155","tags":{"crossing":"zebra","crossing_ref":"zebra","highway":"crossing"},"relations":[],"meta":{}},"geometry":{"type":"Point","coordinates":[7.4279194,43.740331]}},{"type":"Feature","id":"node/1737366176","properties":{"type":"node","id":"1737366176","tags":{"crossing":"zebra","crossing_ref":"zebra","highway":"crossing"},"relations":[],"meta":{}},"geometry":{"type":"Point","coordinates":[7.4250966,43.7374913]}},{"type":"Feature","id":"node/1737366192","properties":{"type":"node","id":"1737366192","tags":{"crossing":"zebra","highway":"crossing"},"relations":[],"meta":{}},"geometry":{"type":"Point","coordinates":[7.4258405,43.7377526]}},{"type":"Feature","id":"node/1770577831","properties":{"type":"node","id":"1770577831","tags":{"bus":"yes","name":"Stade Nautique","public_transport":"stop_position"},"relations":[],"meta":{}},"geometry":{"type":"Point","coordinates":[7.4215941,43.7338388]}},{"type":"Feature","id":"node/1770577832","properties":{"type":"node","id":"1770577832","tags":{"bus":"yes","name":"Princesse Antoinette","public_transport":"stop_position"},"relations":[],"meta":{}},"geometry":{"type":"Point","coordinates":[7.4212077,43.7356156]}},{"type":"Feature","id":"node/1770577838","properties":{"type":"node","id":"1770577838","tags":{"bus":"yes","highway":"bus_stop","name":"Auditorium Rainier III","public_transport":"stop_position"},"relations":[],"meta":{}},"geometry":{"type":"Point","coordinates":[7.4278434,43.737678]}},{"type":"Feature","id":"node/1770577845","properties":{"type":"node","id":"1770577845","tags":{"bus":"yes","name":"Ostende","public_transport":"stop_position"},"relations":[],"meta":{}},"geometry":{"type":"Point","coordinates":[7.423706,43.7372851]}},{"type":"Feature","id":"node/2189614155","properties":{"type":"node","id":"2189614155","tags":{"bus":"yes","name":"Ostende","public_transport":"stop_position"},"relations":[],"meta":{}},"geometry":{"type":"Point","coordinates":[7.4245166,43.7374125]}},{"type":"Feature","id":"node/2241375226","properties":{"type":"node","id":"2241375226","tags":{"crossing":"zebra","highway":"crossing"},"relations":[],"meta":{}},"geometry":{"type":"Point","coordinates":[7.4224101,43.7343117]}},{"type":"Feature","id":"node/2399195740","properties":{"type":"node","id":"2399195740","tags":{"highway":"crossing"},"relations":[],"meta":{}},"geometry":{"type":"Point","coordinates":[7.4216609,43.7336737]}},{"type":"Feature","id":"node/4937755860","properties":{"type":"node","id":"4937755860","tags":{"addr:country":"MC","name":"Depart Grand Prix de Monaco","name:de":"Monaco Grand Prix Start- und Ziellinie","name:en":"Monaco Grand Prix Start/Finish Line","name:fr":"Depart Grand Prix de Monaco","tourism":"attraction"},"relations":[{"role":"finish","rel":"148194","reltags":{"name":"Circuit de Monaco","type":"circuit","wikidata":"Q171400","wikipedia":"en:Circuit de Monaco"}}],"meta":{}},"geometry":{"type":"Point","coordinates":[7.4212652,43.7350269]}},{"type":"Feature","id":"node/5466881416","properties":{"type":"node","id":"5466881416","tags":{"crossing":"uncontrolled","crossing_ref":"zebra","highway":"crossing"},"relations":[],"meta":{}},"geometry":{"type":"Point","coordinates":[7.4297063,43.7410061]}}]}
