{"type":"FeatureCollection","features":[{"type":"Feature","id":"way/120917578","properties":{"type":"way","id":120917578,"tags":{"highway":"raceway","name":"Pit Lane","name:es":"Línea Pit","oneway":"yes","surface":"asphalt"},"relations":[{"role":"pit_lane","rel":"284570","reltags":{"name":"鈴鹿サーキット","name:en":"Suzuka International Racing Course","type":"circuit","wikidata":"Q174170","wikipedia":"en:Suzuka Circuit"}}],"meta":{}},"geometry":{"type":"LineString","coordinates":[[136.5360804,34.8460198],[136.5362354,34.8460448],[136.5363481,34.8460508],[136.5364857,34.8460466],[136.5366327,34.8460334],[136.5368661,34.8459785],[136.5370454,34.8459243],[136.5370833,34.8459099],[136.5373169,34.8458214],[136.537468,34.8457469],[136.5376544,34.8456477],[136.5378058,34.8455519],[136.5379101,34.8454792],[136.5380129,34.8453911],[136.5381073,34.8453082],[136.5383139,34.8451193],[136.539061,34.8443662],[136.5409531,34.8424833],[136.5413125,34.8421517],[136.54157,34.841929],[136.5420775,34.8414907],[136.5423125,34.8412858],[136.542523,34.8411026],[136.5429413,34.8406874]]}},{"type":"Feature","id":"way/175231434","properties":{"type":"way","id":175231434,"tags":{"bridge":"yes","highway":"raceway","layer":"1","oneway":"yes","surface":"asphalt"},"relations":[{"role":"","rel":"284570","reltags":{"name":"鈴鹿サーキット","name:en":"Suzuka International Racing Course","type":"circuit","wikidata":"Q174170","wikipedia":"en:Suzuka Circuit"}}],"meta":{}},"geometry":{"type":"LineString","coordinates":[[136.5301934,34.8440875],[136.5308297,34.8439091]]}},{"type":"Feature","id":"way/183391628","properties":{"type":"way","id":183391628,"tags":{"highway":"raceway","name":"S字","name:en":"'S' Curves","name:es":"Curvas 'S'","oneway":"yes","raceway:corner_number":"4","surface":"asphalt"},"relations":[{"role":"","rel":"284570","reltags":{"name":"鈴鹿サーキット","name:en":"Suzuka International Racing Course","type":"circuit","wikidata":"Q174170","wikipedia":"en:Suzuka Circuit"}}],"meta":{}},"geometry":{"type":"LineString","coordinates":[[136.5401689,34.8407053],[136.5400593,34.8407134],[136.539952,34.8407339],[136.5398492,34.8407663],[136.5397528,34.84081],[136.5396647,34.8408642],[136.5395865,34.8409278],[136.5395197,34.8409997],[136.5394656,34.8410784],[136.5394252,34.8411624],[136.5393896,34.841251]]}},{"type":"Feature","id":"way/183391629","properties":{"type":"way","id":183391629,"tags":{"highway":"raceway","name":"S字","name:en":"'S' Curves","name:es":"Curvas 'S'","oneway":"yes","raceway:corner_number":"5","surface":"asphalt"},"relations":[{"role":"","rel":"284570","reltags":{"name":"鈴鹿サーキット","name:en":"Suzuka International Racing Course","type":"circuit","wikidata":"Q174170","wikipedia":"en:Suzuka Circuit"}}],"meta":{}},"geometry":{"type":"LineString","coordinates":[[136.5392329,34.8417354],[136.5391988,34.8418281],[136.53915,34.8419162],[136.5390873,34.8419982],[136.5390119,34.8420727],[136.5389251,34.8421382],[136.5388284,34.8421937],[136.5387903,34.8422098],[136.5387235,34.8422381],[136.5386124,34.8422706],[136.538497,34.8422907],[136.5383794,34.842298]]}},{"type":"Feature","id":"way/183391630","properties":{"type":"way","id":183391630,"tags":{"highway":"raceway","layer":"1","name":"ダンロップコーナー","name:en":"Dunlop Curve","name:es":"Curva Dunlop","oneway":"yes","raceway:corner_number":"7","surface":"asphalt"},"relations":[{"role":"","rel":"284570","reltags":{"name":"鈴鹿サーキット","name:en":"Suzuka International Racing Course","type":"circuit","wikidata":"Q174170","wikipedia":"en:Suzuka Circuit"}}],"meta":{}},"geometry":{"type":"LineString","coordinates":[[136.5373044,34.843801],[136.5373434,34.8439047],[136.5373635,34.844012],[136.5373643,34.8441206],[136.5373458,34.8442282],[136.5373084,34.8443323],[136.5372528,34.8444308],[136.5371803,34.8445217],[136.5370924,34.8446028],[136.536991,34.8446726],[136.5368179,34.8447568]]}},{"type":"Feature","id":"way/183391631","properties":{"type":"way","id":183391631,"tags":{"highway":"raceway","name":"逆バンク","name:en":"Gyaku Curve","name:es":"Curva Gyaku","oneway":"yes","raceway:corner_number":"6","surface":"asphalt"},"relations":[{"role":"","rel":"284570","reltags":{"name":"鈴鹿サーキット","name:en":"Suzuka International Racing Course","type":"circuit","wikidata":"Q174170","wikipedia":"en:Suzuka Circuit"}}],"meta":{}},"geometry":{"type":"LineString","coordinates":[[136.5379594,34.8423083],[136.5378914,34.8423121],[136.5378051,34.842317],[136.5376625,34.8423497],[136.5375371,34.8423962],[136.5374126,34.8424579],[136.5373035,34.8425309],[136.537198,34.8426283],[136.537117,34.8427239],[136.537058,34.8428299],[136.5370227,34.8429427],[136.5370124,34.8430589],[136.5370273,34.8431748],[136.5370669,34.8432867]]}},{"type":"Feature","id":"way/183391632","properties":{"type":"way","id":183391632,"tags":{"highway":"raceway","oneway":"yes","surface":"asphalt"},"relations":[{"role":"","rel":"284570","reltags":{"name":"鈴鹿サーキット","name:en":"Suzuka International Racing Course","type":"circuit","wikidata":"Q174170","wikipedia":"en:Suzuka Circuit"}}],"meta":{}},"geometry":{"type":"LineString","coordinates":[[136.5370669,34.8432867],[136.5371097,34.8433764],[136.5373044,34.843801]]}},{"type":"Feature","id":"way/183391633","properties":{"type":"way","id":183391633,"tags":{"highway":"raceway","oneway":"yes","surface":"asphalt"},"relations":[{"role":"","rel":"284570","reltags":{"name":"鈴鹿サーキット","name:en":"Suzuka International Racing Course","type":"circuit","wikidata":"Q174170","wikipedia":"en:Suzuka Circuit"}}],"meta":{}},"geometry":{"type":"LineString","coordinates":[[136.5383794,34.842298],[136.5379594,34.8423083]]}},{"type":"Feature","id":"way/183391634","properties":{"type":"way","id":183391634,"tags":{"highway":"raceway","name":"S字","name:en":"'S' Curves","name:es":"Curvas 'S'","oneway":"yes","surface":"asphalt"},"relations":[{"role":"","rel":"284570","reltags":{"name":"鈴鹿サーキット","name:en":"Suzuka International Racing Course","type":"circuit","wikidata":"Q174170","wikipedia":"en:Suzuka Circuit"}}],"meta":{}},"geometry":{"type":"LineString","coordinates":[[136.5393896,34.841251],[136.5392329,34.8417354]]}},{"type":"Feature","id":"way/183391635","properties":{"type":"way","id":183391635,"tags":{"highway":"raceway","name":"S字","name:en":"'S' Curves","name:es":"Curvas 'S'","oneway":"yes","surface":"asphalt"},"relations":[{"role":"","rel":"284570","reltags":{"name":"鈴鹿サーキット","name:en":"Suzuka International Racing Course","type":"circuit","wikidata":"Q174170","wikipedia":"en:Suzuka Circuit"}}],"meta":{}},"geometry":{"type":"LineString","coordinates":[[136.5404601,34.8407007],[136.5401689,34.8407053]]}},{"type":"Feature","id":"way/183391636","properties":{"type":"way","id":183391636,"tags":{"highway":"raceway","name":"S字","name:en":"'S' Curves","name:es":"Curvas 'S'","oneway":"yes","raceway:corner_number":"3","surface":"asphalt"},"relations":[{"role":"","rel":"284570","reltags":{"name":"鈴鹿サーキット","name:en":"Suzuka International Racing Course","type":"circuit","wikidata":"Q174170","wikipedia":"en:Suzuka Circuit"}}],"meta":{}},"geometry":{"type":"LineString","coordinates":[[136.5412266,34.8402887],[136.5410898,34.8404465],[136.5410085,34.8405199],[136.5409147,34.8405826],[136.5408106,34.840633],[136.5406984,34.8406699],[136.5405807,34.8406927],[136.5404601,34.8407007]]}},{"type":"Feature","id":"way/183391637","properties":{"type":"way","id":183391637,"tags":{"highway":"raceway","name":"日立オートモティブシステムズシケイン","name:en":"Hitachi Automotive Systems Chicane","name:es":"Chilcana Hitachi Automotive Systems","oneway":"yes","surface":"asphalt"},"relations":[{"role":"","rel":"284570","reltags":{"name":"鈴鹿サーキット","name:en":"Suzuka International Racing Course","type":"circuit","wikidata":"Q174170","wikipedia":"en:Suzuka Circuit"}}],"meta":{}},"geometry":{"type":"LineString","coordinates":[[136.5349856,34.845881],[136.5352407,34.8456973]]}},{"type":"Feature","id":"way/183391638","properties":{"type":"way","id":183391638,"tags":{"highway":"raceway","name":"日立オートモティブシステムズシケイン","name:en":"Hitachi Automotive Systems Chicane","name:es":"Chilcana Hitachi Automotive Systems","oneway":"yes","surface":"asphalt"},"relations":[{"role":"","rel":"284570","reltags":{"name":"鈴鹿サーキット","name:en":"Suzuka International Racing Course","type":"circuit","wikidata":"Q174170","wikipedia":"en:Suzuka Circuit"}}],"meta":{}},"geometry":{"type":"LineString","coordinates":[[136.5355654,34.8457123],[136.5357926,34.8458779]]}},{"type":"Feature","id":"way/183391639","properties":{"type":"way","id":183391639,"tags":{"highway":"raceway","name":"日立オートモティブシステムズシケイン","name:en":"Hitachi Automotive Systems Chicane","name:es":"Chilcana Hitachi Automotive Systems","oneway":"yes","raceway:corner_number":"17","surface":"asphalt"},"relations":[{"role":"","rel":"284570","reltags":{"name":"鈴鹿サーキット","name:en":"Suzuka International Racing Course","type":"circuit","wikidata":"Q174170","wikipedia":"en:Suzuka Circuit"}}],"meta":{}},"geometry":{"type":"LineString","coordinates":[[136.5352407,34.8456973],[136.5352906,34.8456704],[136.5353472,34.8456548],[136.5354067,34.8456513],[136.5354654,34.8456603],[136.5355195,34.845681],[136.5355654,34.8457123]]}},{"type":"Feature","id":"way/183391640","properties":{"type":"way","id":183391640,"tags":{"highway":"raceway","oneway":"yes","raceway:corner_number":"18","surface":"asphalt"},"relations":[{"role":"","rel":"284570","reltags":{"name":"鈴鹿サーキット","name:en":"Suzuka International Racing Course","type":"circuit","wikidata":"Q174170","wikipedia":"en:Suzuka Circuit"}}],"meta":{}},"geometry":{"type":"LineString","coordinates":[[136.5357926,34.8458779],[136.5359463,34.8459636],[136.5360804,34.8460198],[136.536222,34.8460631],[136.5364057,34.846086],[136.5365487,34.8460902],[136.5366892,34.8460847]]}},{"type":"Feature","id":"way/183391641","properties":{"type":"way","id":183391641,"tags":{"highway":"raceway","name":"デグナー1","name:en":"Degner Curve 1","name:es":"Curva Degner 1","oneway":"yes","raceway:corner_number":"8","surface":"asphalt"},"relations":[{"role":"","rel":"284570","reltags":{"name":"鈴鹿サーキット","name:en":"Suzuka International Racing Course","type":"circuit","wikidata":"Q174170","wikipedia":"en:Suzuka Circuit"}}],"meta":{}},"geometry":{"type":"LineString","coordinates":[[136.5326951,34.8433571],[136.5326519,34.8433141],[136.5325835,34.8432615],[136.5325225,34.8432399]]}},{"type":"Feature","id":"way/183391642","properties":{"type":"way","id":183391642,"tags":{"highway":"raceway","name":"ダンロップコーナー","name:en":"Dunlop Curve","name:es":"Curva Dunlop","oneway":"yes","surface":"asphalt"},"relations":[{"role":"","rel":"284570","reltags":{"name":"鈴鹿サーキット","name:en":"Suzuka International Racing Course","type":"circuit","wikidata":"Q174170","wikipedia":"en:Suzuka Circuit"}}],"meta":{}},"geometry":{"type":"LineString","coordinates":[[136.5368179,34.8447568],[136.5366143,34.8448406],[136.536454,34.8449],[136.5362912,34.844953],[136.5361745,34.844988],[136.5360682,34.8450085],[136.5359709,34.8450272],[136.5358314,34.8450432],[136.5357134,34.8450532],[136.5354614,34.8450569],[136.53533,34.8450506],[136.5351793,34.8450433],[136.5350143,34.8450195],[136.534844,34.8449715],[136.5344848,34.8448418],[136.5343214,34.8447728]]}},{"type":"Feature","id":"way/183391643","properties":{"type":"way","id":183391643,"tags":{"highway":"raceway","name":"1コーナー","name:en":"First Turn","name:es":"Primer giro","oneway":"yes","raceway:corner_number":"1","surface":"asphalt"},"relations":[{"role":"","rel":"284570","reltags":{"name":"鈴鹿サーキット","name:en":"Suzuka International Racing Course","type":"circuit","wikidata":"Q174170","wikipedia":"en:Suzuka Circuit"}}],"meta":{}},"geometry":{"type":"LineString","coordinates":[[136.5429413,34.8406874],[136.5431289,34.8404982],[136.5432316,34.8403901],[136.5433158,34.8402661],[136.5433642,34.8401698],[136.5433883,34.8401027],[136.5434021,34.8400493],[136.5434135,34.8399727],[136.543416,34.8399191],[136.5434079,34.8398281],[136.5433894,34.8397415],[136.5433643,34.8396619],[136.5433105,34.8395159]]}},{"type":"Feature","id":"way/183391644","properties":{"type":"way","id":183391644,"tags":{"highway":"raceway","name":"2コーナー","name:en":"Second Turn","name:es":"Segundo giro","oneway":"yes","raceway:corner_number":"2","surface":"asphalt"},"relations":[{"role":"","rel":"284570","reltags":{"name":"鈴鹿サーキット","name:en":"Suzuka International Racing Course","type":"circuit","wikidata":"Q174170","wikipedia":"en:Suzuka Circuit"}}],"meta":{}},"geometry":{"type":"LineString","coordinates":[[136.5432043,34.8392618],[136.543145,34.8391773],[136.5430912,34.8391119],[136.5430056,34.8390522],[136.542909,34.8390054],[136.542804,34.8389728],[136.5426938,34.8389554],[136.5425815,34.8389536],[136.5424706,34.8389676],[136.5423642,34.8389969],[136.5422654,34.8390407],[136.5421772,34.8390976],[136.5420866,34.8391762]]}},{"type":"Feature","id":"way/183391645","properties":{"type":"way","id":183391645,"tags":{"highway":"raceway","oneway":"yes","surface":"asphalt"},"relations":[{"role":"","rel":"284570","reltags":{"name":"鈴鹿サーキット","name:en":"Suzuka International Racing Course","type":"circuit","wikidata":"Q174170","wikipedia":"en:Suzuka Circuit"}}],"meta":{}},"geometry":{"type":"LineString","coordinates":[[136.5433105,34.8395159],[136.5432043,34.8392618]]}},{"type":"Feature","id":"way/183391646","properties":{"type":"way","id":183391646,"tags":{"highway":"raceway","name":"ヘアピン","name:en":"Hairpin","name:es":"Hairpin","oneway":"yes","raceway:corner_number":"11","surface":"asphalt"},"relations":[{"role":"","rel":"284570","reltags":{"name":"鈴鹿サーキット","name:en":"Suzuka International Racing Course","type":"circuit","wikidata":"Q174170","wikipedia":"en:Suzuka Circuit"}}],"meta":{}},"geometry":{"type":"LineString","coordinates":[[136.5306381,34.8469373],[136.5306609,34.8470058],[136.5306508,34.8470774],[136.53062,34.8471329],[136.5305695,34.8471782],[136.5305029,34.8472067],[136.5304283,34.8472173],[136.5303564,34.8472083],[136.5302862,34.8471808],[136.5302288,34.8471357],[136.5301803,34.847084]]}},{"type":"Feature","id":"way/183391647","properties":{"type":"way","id":183391647,"tags":{"highway":"raceway","name":"スプーンカーブ","name:en":"Spoon Curve","oneway":"yes","raceway:corner_number":"13","surface":"asphalt"},"relations":[{"role":"","rel":"284570","reltags":{"name":"鈴鹿サーキット","name:en":"Suzuka International Racing Course","type":"circuit","wikidata":"Q174170","wikipedia":"en:Suzuka Circuit"}}],"meta":{}},"geometry":{"type":"LineString","coordinates":[[136.5238013,34.8480757],[136.5237629,34.8481297],[136.523724,34.8481719],[136.5236749,34.8482144],[136.5236192,34.8482547],[136.5235518,34.8482945],[136.5234864,34.8483222],[136.52341,34.8483472],[136.5233284,34.8483651],[136.5231568,34.8483821],[136.5229353,34.8483754]]}},{"type":"Feature","id":"way/183391648","properties":{"type":"way","id":183391648,"tags":{"highway":"raceway","name":"スプーンカーブ","name:en":"Spoon Curve","name:es":"Curva Spoon","oneway":"yes","raceway:corner_number":"14","surface":"asphalt"},"relations":[{"role":"","rel":"284570","reltags":{"name":"鈴鹿サーキット","name:en":"Suzuka International Racing Course","type":"circuit","wikidata":"Q174170","wikipedia":"en:Suzuka Circuit"}}],"meta":{}},"geometry":{"type":"LineString","coordinates":[[136.5224387,34.8482967],[136.5223248,34.8482604],[136.5222185,34.8482193],[136.5221646,34.8481938],[136.5221058,34.8481529],[136.5220539,34.8481003],[136.5219983,34.848027],[136.5219596,34.8479554],[136.5219266,34.8478592],[136.5219196,34.8477572],[136.5219288,34.8476673],[136.5219605,34.8475648],[136.5220008,34.8474756],[136.5220765,34.8473643],[136.5221328,34.8473]]}},{"type":"Feature","id":"way/183391649","properties":{"type":"way","id":183391649,"tags":{"highway":"raceway","oneway":"yes","surface":"asphalt"},"relations":[{"role":"","rel":"284570","reltags":{"name":"鈴鹿サーキット","name:en":"Suzuka International Racing Course","type":"circuit","wikidata":"Q174170","wikipedia":"en:Suzuka Circuit"}}],"meta":{}},"geometry":{"type":"LineString","coordinates":[[136.5241025,34.8475132],[136.5238013,34.8480757]]}},{"type":"Feature","id":"way/183391651","properties":{"type":"way","id":183391651,"tags":{"highway":"raceway","oneway":"yes","raceway:corner_number":"12","surface":"asphalt"},"relations":[{"role":"","rel":"284570","reltags":{"name":"鈴鹿サーキット","name:en":"Suzuka International Racing Course","type":"circuit","wikidata":"Q174170","wikipedia":"en:Suzuka Circuit"}}],"meta":{}},"geometry":{"type":"LineString","coordinates":[[136.5294256,34.8460793],[136.5293051,34.8459568],[136.5292017,34.8458568],[136.5290474,34.8457295],[136.5289619,34.8456656],[136.5288721,34.845613],[136.5286032,34.8454818],[136.5283426,34.8454158],[136.5280368,34.8453854],[136.5278363,34.8453705],[136.5276321,34.8453631],[136.5274819,34.8453655]]}},{"type":"Feature","id":"way/183391652","properties":{"type":"way","id":183391652,"tags":{"highway":"raceway","name":"130R","oneway":"yes","raceway:corner_number":"15","surface":"asphalt"},"relations":[{"role":"","rel":"284570","reltags":{"name":"鈴鹿サーキット","name:en":"Suzuka International Racing Course","type":"circuit","wikidata":"Q174170","wikipedia":"en:Suzuka Circuit"}}],"meta":{}},"geometry":{"type":"LineString","coordinates":[[136.5308297,34.8439091],[136.5309209,34.8438864],[136.5309926,34.843873],[136.53113,34.8438616],[136.5312753,34.8438699],[136.5314191,34.8438962],[136.5316005,34.843941],[136.5317624,34.8439844],[136.531932,34.8440359],[136.5320731,34.8440878],[136.5322132,34.8441382],[136.5323319,34.8441932],[136.5325562,34.8443103],[136.5326904,34.8443849],[136.5327906,34.8444469],[136.5329942,34.8445872]]}},{"type":"Feature","id":"way/183391655","properties":{"type":"way","id":183391655,"tags":{"highway":"raceway","oneway":"yes","surface":"asphalt"},"relations":[{"role":"","rel":"284570","reltags":{"name":"鈴鹿サーキット","name:en":"Suzuka International Racing Course","type":"circuit","wikidata":"Q174170","wikipedia":"en:Suzuka Circuit"}}],"meta":{}},"geometry":{"type":"LineString","coordinates":[[136.5307702,34.8433394],[136.5306388,34.8438551]]}},{"type":"Feature","id":"way/183391656","properties":{"type":"way","id":183391656,"tags":{"highway":"raceway","oneway":"yes","surface":"asphalt"},"relations":[{"role":"","rel":"284570","reltags":{"name":"鈴鹿サーキット","name:en":"Suzuka International Racing Course","type":"circuit","wikidata":"Q174170","wikipedia":"en:Suzuka Circuit"}}],"meta":{}},"geometry":{"type":"LineString","coordinates":[[136.5325225,34.8432399],[136.5310945,34.8431372]]}},{"type":"Feature","id":"way/183391657","properties":{"type":"way","id":183391657,"tags":{"highway":"raceway","oneway":"yes","surface":"asphalt"},"relations":[{"role":"","rel":"284570","reltags":{"name":"鈴鹿サーキット","name:en":"Suzuka International Racing Course","type":"circuit","wikidata":"Q174170","wikipedia":"en:Suzuka Circuit"}}],"meta":{}},"geometry":{"type":"LineString","coordinates":[[136.5420866,34.8391762],[136.5419278,34.8393919],[136.5412266,34.8402887]]}},{"type":"Feature","id":"way/183391658","properties":{"type":"way","id":183391658,"tags":{"highway":"raceway","oneway":"yes","surface":"asphalt"},"relations":[{"role":"","rel":"284570","reltags":{"name":"鈴鹿サーキット","name:en":"Suzuka International Racing Course","type":"circuit","wikidata":"Q174170","wikipedia":"en:Suzuka Circuit"}}],"meta":{}},"geometry":{"type":"LineString","coordinates":[[136.5303867,34.8464675],[136.5306381,34.8469373]]}},{"type":"Feature","id":"way/183391659","properties":{"type":"way","id":183391659,"tags":{"highway":"raceway","oneway":"yes","surface":"asphalt"},"relations":[{"role":"","rel":"284570","reltags":{"name":"鈴鹿サーキット","name:en":"Suzuka International Racing Course","type":"circuit","wikidata":"Q174170","wikipedia":"en:Suzuka Circuit"}}],"meta":{}},"geometry":{"type":"LineString","coordinates":[[136.5301803,34.847084],[136.5298862,34.846679],[136.5298262,34.8466038],[136.5296327,34.8463536],[136.5294256,34.8460793]]}},{"type":"Feature","id":"way/183391660","properties":{"type":"way","id":183391660,"tags":{"highway":"raceway","oneway":"yes","surface":"asphalt"},"relations":[{"role":"","rel":"284570","reltags":{"name":"鈴鹿サーキット","name:en":"Suzuka International Racing Course","type":"circuit","wikidata":"Q174170","wikipedia":"en:Suzuka Circuit"}}],"meta":{}},"geometry":{"type":"LineString","coordinates":[[136.5329942,34.8445872],[136.5334189,34.8449128],[136.5336199,34.8450658],[136.5343261,34.8456006],[136.5343863,34.8456426],[136.5345751,34.8457645],[136.534656,34.8458109],[136.5347397,34.8458573]]}},{"type":"Feature","id":"way/183391661","properties":{"type":"way","id":183391661,"tags":{"highway":"raceway","oneway":"yes","raceway:corner_number":"18","surface":"asphalt"},"relations":[{"role":"","rel":"284570","reltags":{"name":"鈴鹿サーキット","name:en":"Suzuka International Racing Course","type":"circuit","wikidata":"Q174170","wikipedia":"en:Suzuka Circuit"}}],"meta":{}},"geometry":{"type":"LineString","coordinates":[[136.5366892,34.8460847],[136.5367945,34.8460736],[136.5368458,34.8460672],[136.5369554,34.8460536],[136.5370183,34.8460421],[136.5371993,34.8459952],[136.5373221,34.8459558]]}},{"type":"Feature","id":"way/183391662","properties":{"type":"way","id":183391662,"tags":{"highway":"raceway","oneway":"yes","raceway:corner_number":"10","surface":"asphalt"},"relations":[{"role":"","rel":"284570","reltags":{"name":"鈴鹿サーキット","name:en":"Suzuka International Racing Course","type":"circuit","wikidata":"Q174170","wikipedia":"en:Suzuka Circuit"}}],"meta":{}},"geometry":{"type":"LineString","coordinates":[[136.5302551,34.8454878],[136.5301992,34.8457251],[136.5301787,34.8458653],[136.5301811,34.8459783],[136.5302047,34.8460941],[136.5302735,34.8462695],[136.5303867,34.8464675]]}},{"type":"Feature","id":"way/183391664","properties":{"type":"way","id":183391664,"tags":{"highway":"raceway","name":"デグナー2","name:en":"Degner Curve 2","name:es":"Curva Degner 2","oneway":"yes","raceway:corner_number":"9","surface":"asphalt"},"relations":[{"role":"","rel":"284570","reltags":{"name":"鈴鹿サーキット","name:en":"Suzuka International Racing Course","type":"circuit","wikidata":"Q174170","wikipedia":"en:Suzuka Circuit"}}],"meta":{}},"geometry":{"type":"LineString","coordinates":[[136.5310945,34.8431372],[136.53098,34.843136],[136.5309253,34.8431509],[136.530876,34.8431754],[136.5308345,34.8432082],[136.5308027,34.8432476],[136.5307824,34.8432919],[136.5307702,34.8433394]]}},{"type":"Feature","id":"way/183391665","properties":{"type":"way","id":183391665,"tags":{"highway":"raceway","name":"Suzuka International Circuit","oneway":"yes","surface":"asphalt"},"relations":[{"role":"","rel":"284570","reltags":{"name":"鈴鹿サーキット","name:en":"Suzuka International Racing Course","type":"circuit","wikidata":"Q174170","wikipedia":"en:Suzuka Circuit"}}],"meta":{}},"geometry":{"type":"LineString","coordinates":[[136.5373221,34.8459558],[136.5375931,34.8458319],[136.5378166,34.8457008],[136.5379801,34.8455844],[136.5381516,34.8454501],[136.5383728,34.8452452],[136.5386784,34.8449488],[136.5411031,34.8425349],[136.5429413,34.8406874]]}},{"type":"Feature","id":"way/184101995","properties":{"type":"way","id":184101995,"tags":{"covered":"yes","highway":"raceway"},"relations":[{"role":"","rel":"284570","reltags":{"name":"鈴鹿サーキット","name:en":"Suzuka International Racing Course","type":"circuit","wikidata":"Q174170","wikipedia":"en:Suzuka Circuit"}}],"meta":{}},"geometry":{"type":"LineString","coordinates":[[136.5306388,34.8438551],[136.5306321,34.843884]]}},{"type":"Feature","id":"way/184101998","properties":{"type":"way","id":184101998,"tags":{"highway":"raceway","oneway":"yes","surface":"asphalt"},"relations":[{"role":"","rel":"284570","reltags":{"name":"鈴鹿サーキット","name:en":"Suzuka International Racing Course","type":"circuit","wikidata":"Q174170","wikipedia":"en:Suzuka Circuit"}}],"meta":{}},"geometry":{"type":"LineString","coordinates":[[136.5305935,34.8440738],[136.5302551,34.8454878]]}},{"type":"Feature","id":"way/411289989","properties":{"type":"way","id":411289989,"tags":{"highway":"raceway","name":"日立オートモティブシステムズシケイン","name:en":"Hitachi Automotive Systems Chicane","name:es":"Chilcana Hitachi Automotive Systems","oneway":"yes","raceway:corner_number":"16","surface":"asphalt"},"relations":[{"role":"","rel":"284570","reltags":{"name":"鈴鹿サーキット","name:en":"Suzuka International Racing Course","type":"circuit","wikidata":"Q174170","wikipedia":"en:Suzuka Circuit"}}],"meta":{}},"geometry":{"type":"LineString","coordinates":[[136.5347397,34.8458573],[136.5347963,34.8458846],[136.5348381,34.8458961],[136.5348783,34.8459029],[136.5349159,34.8459031],[136.5349524,34.8458956],[136.5349856,34.845881]]}},{"type":"Feature","id":"way/411295347","properties":{"type":"way","id":411295347,"tags":{"highway":"raceway","oneway":"yes","surface":"asphalt"},"relations":[{"role":"","rel":"284570","reltags":{"name":"鈴鹿サーキット","name:en":"Suzuka International Racing Course","type":"circuit","wikidata":"Q174170","wikipedia":"en:Suzuka Circuit"}}],"meta":{}},"geometry":{"type":"LineString","coordinates":[[136.5274819,34.8453655],[136.5272976,34.8453798],[136.5270275,34.8454099],[136.526649,34.8454858],[136.5263114,34.8455794],[136.525971,34.8456817],[136.5257343,34.8457709],[136.5255023,34.845881],[136.5253041,34.8459911],[136.5250807,34.8461423],[136.5249542,34.8462491],[136.5248435,34.8463527],[136.5247546,34.8464419],[136.524657,34.8465513],[136.5245356,34.8467173],[136.5244264,34.8468951],[136.5241025,34.8475132]]}},{"type":"Feature","id":"way/411295348","properties":{"type":"way","id":411295348,"tags":{"highway":"raceway","oneway":"yes","surface":"asphalt"},"relations":[{"role":"","rel":"284570","reltags":{"name":"鈴鹿サーキット","name:en":"Suzuka International Racing Course","type":"circuit","wikidata":"Q174170","wikipedia":"en:Suzuka Circuit"}}],"meta":{}},"geometry":{"type":"LineString","coordinates":[[136.5221328,34.8473],[136.5221733,34.8472624],[136.5223235,34.8471229],[136.522497,34.846997],[136.5226777,34.8468731],[136.5230142,34.8466554],[136.5232444,34.8465161],[136.5234436,34.8464031],[136.5239199,34.8461483],[136.5243525,34.8459379],[136.5247603,34.8457589],[136.5250832,34.8456294],[136.5251751,34.8455925],[136.5254469,34.8454933],[136.5258057,34.8453696],[136.5263556,34.8452096],[136.5273092,34.8449323],[136.5285189,34.8445803],[136.5301934,34.8440875]]}},{"type":"Feature","id":"way/411295349","properties":{"type":"way","id":411295349,"tags":{"highway":"raceway","oneway":"yes","surface":"asphalt"},"relations":[{"role":"","rel":"284570","reltags":{"name":"鈴鹿サーキット","name:en":"Suzuka International Racing Course","type":"circuit","wikidata":"Q174170","wikipedia":"en:Suzuka Circuit"}}],"meta":{}},"geometry":{"type":"LineString","coordinates":[[136.5343214,34.8447728],[136.5341516,34.8446868],[136.5340146,34.8446015],[136.5339311,34.8445397],[136.5338709,34.8444919],[136.5338132,34.8444459],[136.5336663,34.8443214],[136.5326951,34.8433571]]}},{"type":"Feature","id":"way/411295351","properties":{"type":"way","id":411295351,"tags":{"highway":"raceway","name":"スプーンカーブ","name:en":"Spoon Curve","oneway":"yes","surface":"asphalt"},"relations":[{"role":"","rel":"284570","reltags":{"name":"鈴鹿サーキット","name:en":"Suzuka International Racing Course","type":"circuit","wikidata":"Q174170","wikipedia":"en:Suzuka Circuit"}}],"meta":{}},"geometry":{"type":"LineString","coordinates":[[136.5229353,34.8483754],[136.5227931,34.8483635],[136.5226323,34.8483383],[136.5224387,34.8482967]]}},{"type":"Feature","id":"way/562942939","properties":{"type":"way","id":562942939,"tags":{"covered":"yes","highway":"raceway","layer":"-1","oneway":"yes","surface":"asphalt","tunnel":"yes"},"relations":[{"role":"","rel":"284570","reltags":{"name":"鈴鹿サーキット","name:en":"Suzuka International Racing Course","type":"circuit","wikidata":"Q174170","wikipedia":"en:Suzuka Circuit"}}],"meta":{}},"geometry":{"type":"LineString","coordinates":[[136.5306321,34.843884],[136.5305935,34.8440738]]}}]}
